{"type": "FeatureCollection", "features": [ {"type": "Feature", "properties": {"norad_id": 35160, "name": "FENGYUN 1C DEB", "group": "fengyun-1c-debris", "lat": -10.081813299343123, "lon": -71.92841564635607, "alt_km": 662.1439141489464, "timestamp": "2025-12-20T18:51:32.001246+00:00", "meta": {"OBJECT_NAME": "FENGYUN 1C DEB", "OBJECT_ID": "1999-025DMQ", "EPOCH": "2025-12-16T13:37:44.190912", "MEAN_MOTION": 14.35976797, "ECCENTRICITY": 0.01760845, "INCLINATION": 99.155, "RA_OF_ASC_NODE": 105.2355, "ARG_OF_PERICENTER": 228.1924, "MEAN_ANOMALY": 130.4106, "EPHEMERIS_TYPE": 0, "CLASSIFICATION_TYPE": "U", "NORAD_CAT_ID": 35160, "ELEMENT_SET_NO": 999, "REV_AT_EPOCH": 64986, "BSTAR": 0.00041002814, "MEAN_MOTION_DOT": 1.364e-05, "MEAN_MOTION_DDOT": 0}, "tle": {"line1": "1 35160U 99025DMQ 25350.56787258  .00001364  00000+0  41003-3 0  9997", "line2": "2 35160  99.1550 105.2355 0176084 228.1924 130.4106 14.35976797649867"}}, "geometry": {"type": "Point", "coordinates": [-71.92841564635607, -10.081813299343123]}}, {"type": "Feature", "properties": {"norad_id": 35165, "name": "FENGYUN 1C DEB", "group": "fengyun-1c-debris", "lat": -76.72861186543115, "lon": -134.62949117496407, "alt_km": 797.109478261169, "timestamp": "2025-12-20T18:51:32.001256+00:00", "meta": {"OBJECT_NAME": "FENGYUN 1C DEB", "OBJECT_ID": "1999-025DMV", "EPOCH": "2025-12-18T05:21:32.210208", "MEAN_MOTION": 14.33859708, "ECCENTRICITY": 0.00204642, "INCLINATION": 98.8788, "RA_OF_ASC_NODE": 84.2512, "ARG_OF_PERICENTER": 46.5286, "MEAN_ANOMALY": 313.7595, "EPHEMERIS_TYPE": 0, "CLASSIFICATION_TYPE": "U", "NORAD_CAT_ID": 35165, "ELEMENT_SET_NO": 999, "REV_AT_EPOCH": 89799, "BSTAR": 0.0017312247, "MEAN_MOTION_DOT": 4.787e-05, "MEAN_MOTION_DDOT": 0}, "tle": {"line1": "1 35165U 99025DMV 25352.22328947  .00004787  00000+0  17312-2 0  9990", "line2": "2 35165  98.8788  84.2512 0020464  46.5286 313.7595 14.33859708897992"}}, "geometry": {"type": "Point", "coordinates": [-134.62949117496407, -76.72861186543115]}}, {"type": "Feature", "properties": {"norad_id": 35167, "name": "FENGYUN 1C DEB", "group": "fengyun-1c-debris", "lat": -50.69061668504621, "lon": -1.767336337194569, "alt_km": 894.3316715710816, "timestamp": "2025-12-20T18:51:32.001267+00:00", "meta": {"OBJECT_NAME": "FENGYUN 1C DEB", "OBJECT_ID": "1999-025DMX", "EPOCH": "2025-12-17T22:18:45.149472", "MEAN_MOTION": 14.31170783, "ECCENTRICITY": 0.02295949, "INCLINATION": 98.4497, "RA_OF_ASC_NODE": 344.992, "ARG_OF_PERICENTER": 188.7522, "MEAN_ANOMALY": 170.9628, "EPHEMERIS_TYPE": 0, "CLASSIFICATION_TYPE": "U", "NORAD_CAT_ID": 35167, "ELEMENT_SET_NO": 999, "REV_AT_EPOCH": 70094, "BSTAR": 0.00031462149, "MEAN_MOTION_DOT": 1.059e-05, "MEAN_MOTION_DDOT": 0}, "tle": {"line1": "1 35167U 99025DMX 25351.92968923  .00001059  00000+0  31462-3 0  9994", "line2": "2 35167  98.4497 344.9920 0229594 188.7522 170.9628 14.31170783700948"}}, "geometry": {"type": "Point", "coordinates": [-1.767336337194569, -50.69061668504621]}}, {"type": "Feature", "properties": {"norad_id": 35168, "name": "FENGYUN 1C DEB", "group": "fengyun-1c-debris", "lat": 20.870068580769214, "lon": 69.27251559636855, "alt_km": 786.6662531582288, "timestamp": "2025-12-20T18:51:32.001276+00:00", "meta": {"OBJECT_NAME": "FENGYUN 1C DEB", "OBJECT_ID": "1999-025DMY", "EPOCH": "2025-12-11T11:53:15.848448", "MEAN_MOTION": 14.15522112, "ECCENTRICITY": 0.01260569, "INCLINATION": 98.2752, "RA_OF_ASC_NODE": 237.4634, "ARG_OF_PERICENTER": 131.2558, "MEAN_ANOMALY": 229.9558, "EPHEMERIS_TYPE": 0, "CLASSIFICATION_TYPE": "U", "NORAD_CAT_ID": 35168, "ELEMENT_SET_NO": 999, "REV_AT_EPOCH": 57906, "BSTAR": 0.00034767464, "MEAN_MOTION_DOT": 6.96e-06, "MEAN_MOTION_DDOT": 0}, "tle": {"line1": "1 35168U 99025DMY 25345.49532232  .00000696  00000+0  34767-3 0  9997", "line2": "2 35168  98.2752 237.4634 0126056 131.2558 229.9558 14.15522112579063"}}, "geometry": {"type": "Point", "coordinates": [69.27251559636855, 20.870068580769214]}}, {"type": "Feature", "properties": {"norad_id": 35169, "name": "FENGYUN 1C DEB", "group": "fengyun-1c-debris", "lat": 69.36037914691698, "lon": -146.12546708402357, "alt_km": 584.8008227410437, "timestamp": "2025-12-20T18:51:32.001287+00:00", "meta": {"OBJECT_NAME": "FENGYUN 1C DEB", "OBJECT_ID": "1999-025DMZ", "EPOCH": "2025-12-13T21:54:45.837792", "MEAN_MOTION": 14.5866776, "ECCENTRICITY": 0.01527117, "INCLINATION": 99.1288, "RA_OF_ASC_NODE": 231.5975, "ARG_OF_PERICENTER": 104.1831, "MEAN_ANOMALY": 257.6385, "EPHEMERIS_TYPE": 0, "CLASSIFICATION_TYPE": "U", "NORAD_CAT_ID": 35169, "ELEMENT_SET_NO": 999, "REV_AT_EPOCH": 65797, "BSTAR": 0.00059843273, "MEAN_MOTION_DOT": 3.218e-05, "MEAN_MOTION_DDOT": 0}, "tle": {"line1": "1 35169U 99025DMZ 25347.91303053  .00003218  00000+0  59843-3 0  9999", "line2": "2 35169  99.1288 231.5975 0152711 104.1831 257.6385 14.58667760657970"}}, "geometry": {"type": "Point", "coordinates": [-146.12546708402357, 69.36037914691698]}}, {"type": "Feature", "properties": {"norad_id": 35171, "name": "FENGYUN 1C DEB", "group": "fengyun-1c-debris", "lat": 80.0463446729594, "lon": 30.63539617469329, "alt_km": 996.655308968966, "timestamp": "2025-12-20T18:51:32.001297+00:00", "meta": {"OBJECT_NAME": "FENGYUN 1C DEB", "OBJECT_ID": "1999-025DNB", "EPOCH": "2025-12-17T21:33:01.857888", "MEAN_MOTION": 13.94988633, "ECCENTRICITY": 0.01381219, "INCLINATION": 99.0078, "RA_OF_ASC_NODE": 143.144, "ARG_OF_PERICENTER": 304.4943, "MEAN_ANOMALY": 54.3238, "EPHEMERIS_TYPE": 0, "CLASSIFICATION_TYPE": "U", "NORAD_CAT_ID": 35171, "ELEMENT_SET_NO": 999, "REV_AT_EPOCH": 88630, "BSTAR": 0.0013902005, "MEAN_MOTION_DOT": 1.981e-05, "MEAN_MOTION_DDOT": 0}, "tle": {"line1": "1 35171U 99025DNB 25351.89793817  .00001981  00000+0  13902-2 0  9995", "line2": "2 35171  99.0078 143.1440 0138121 304.4943  54.3238 13.94988633886306"}}, "geometry": {"type": "Point", "coordinates": [30.63539617469329, 80.0463446729594]}}, {"type": "Feature", "properties": {"norad_id": 35173, "name": "FENGYUN 1C DEB", "group": "fengyun-1c-debris", "lat": -5.975671257108729, "lon": -114.98526236387323, "alt_km": 758.4248106095365, "timestamp": "2025-12-20T18:51:32.001308+00:00", "meta": {"OBJECT_NAME": "FENGYUN 1C DEB", "OBJECT_ID": "1999-025DND", "EPOCH": "2025-12-16T00:47:59.591040", "MEAN_MOTION": 13.3734937, "ECCENTRICITY": 0.04902254, "INCLINATION": 99.7848, "RA_OF_ASC_NODE": 61.4638, "ARG_OF_PERICENTER": 205.6396, "MEAN_ANOMALY": 151.9668, "EPHEMERIS_TYPE": 0, "CLASSIFICATION_TYPE": "U", "NORAD_CAT_ID": 35173, "ELEMENT_SET_NO": 999, "REV_AT_EPOCH": 65873, "BSTAR": 0.0018387485, "MEAN_MOTION_DOT": 1.881e-05, "MEAN_MOTION_DDOT": 0}, "tle": {"line1": "1 35173U 99025DND 25350.03332860  .00001881  00000+0  18387-2 0  9990", "line2": "2 35173  99.7848  61.4638 0490225 205.6396 151.9668 13.37349370658732"}}, "geometry": {"type": "Point", "coordinates": [-114.98526236387323, -5.975671257108729]}}, {"type": "Feature", "properties": {"norad_id": 35174, "name": "FENGYUN 1C DEB", "group": "fengyun-1c-debris", "lat": 25.99022243709613, "lon": -34.11797032436715, "alt_km": 635.6602514337828, "timestamp": "2025-12-20T18:51:32.001318+00:00", "meta": {"OBJECT_NAME": "FENGYUN 1C DEB", "OBJECT_ID": "1999-025DNE", "EPOCH": "2025-12-13T04:07:25.072608", "MEAN_MOTION": 14.98877767, "ECCENTRICITY": 0.01541479, "INCLINATION": 98.9697, "RA_OF_ASC_NODE": 321.54, "ARG_OF_PERICENTER": 181.4297, "MEAN_ANOMALY": 178.6503, "EPHEMERIS_TYPE": 0, "CLASSIFICATION_TYPE": "U", "NORAD_CAT_ID": 35174, "ELEMENT_SET_NO": 999, "REV_AT_EPOCH": 90172, "BSTAR": 0.0023807921, "MEAN_MOTION_DOT": 0.0003695, "MEAN_MOTION_DDOT": 0}, "tle": {"line1": "1 35174U 99025DNE 25347.17181797  .00036950  00000+0  23808-2 0  9992", "line2": "2 35174  98.9697 321.5400 0154147 181.4297 178.6503 14.98877767901722"}}, "geometry": {"type": "Point", "coordinates": [-34.11797032436715, 25.99022243709613]}}, {"type": "Feature", "properties": {"norad_id": 35175, "name": "FENGYUN 1C DEB", "group": "fengyun-1c-debris", "lat": 77.74042246343792, "lon": -133.12845451899963, "alt_km": 851.5932776551363, "timestamp": "2025-12-20T18:51:32.001341+00:00", "meta": {"OBJECT_NAME": "FENGYUN 1C DEB", "OBJECT_ID": "1999-025DNF", "EPOCH": "2025-12-20T06:33:53.846496", "MEAN_MOTION": 14.21314164, "ECCENTRICITY": 0.00571201, "INCLINATION": 98.5743, "RA_OF_ASC_NODE": 2.4011, "ARG_OF_PERICENTER": 257.8544, "MEAN_ANOMALY": 101.6231, "EPHEMERIS_TYPE": 0, "CLASSIFICATION_TYPE": "U", "NORAD_CAT_ID": 35175, "ELEMENT_SET_NO": 999, "REV_AT_EPOCH": 61342, "BSTAR": 0.00027562442, "MEAN_MOTION_DOT": 5.68e-06, "MEAN_MOTION_DDOT": 0}, "tle": {"line1": "1 35175U 99025DNF 25354.27353989  .00000568  00000+0  27562-3 0  9994", "line2": "2 35175  98.5743   2.4011 0057120 257.8544 101.6231 14.21314164613424"}}, "geometry": {"type": "Point", "coordinates": [-133.12845451899963, 77.74042246343792]}}, {"type": "Feature", "properties": {"norad_id": 35176, "name": "FENGYUN 1C DEB", "group": "fengyun-1c-debris", "lat": -7.175139854250285, "lon": -17.66850865378573, "alt_km": 809.4839050942, "timestamp": "2025-12-20T18:51:32.001354+00:00", "meta": {"OBJECT_NAME": "FENGYUN 1C DEB", "OBJECT_ID": "1999-025DNG", "EPOCH": "2025-12-18T05:53:05.761248", "MEAN_MOTION": 14.17003303, "ECCENTRICITY": 0.00544502, "INCLINATION": 98.5554, "RA_OF_ASC_NODE": 338.8015, "ARG_OF_PERICENTER": 41.0108, "MEAN_ANOMALY": 319.5142, "EPHEMERIS_TYPE": 0, "CLASSIFICATION_TYPE": "U", "NORAD_CAT_ID": 35176, "ELEMENT_SET_NO": 999, "REV_AT_EPOCH": 91006, "BSTAR": 0.00030539566, "MEAN_MOTION_DOT": 5.81e-06, "MEAN_MOTION_DDOT": 0}, "tle": {"line1": "1 35176U 99025DNG 25352.24520557  .00000581  00000+0  30540-3 0  9992", "line2": "2 35176  98.5554 338.8015 0054450  41.0108 319.5142 14.17003303910063"}}, "geometry": {"type": "Point", "coordinates": [-17.66850865378573, -7.175139854250285]}}]}